[{"OBJECT_NAME":"GLOBALSTAR M080","OBJECT_ID":"2011-080B","EPOCH":"2026-04-26T20:58:41.288736","MEAN_MOTION":12.62268533,"ECCENTRICITY":7.32e-5,"INCLINATION":52.0042,"RA_OF_ASC_NODE":175.1992,"ARG_OF_PERICENTER":142.8037,"MEAN_ANOMALY":31.3257,"EPHEMERIS_TYPE":0,"CLASSIFICATION_TYPE":"U","NORAD_CAT_ID":38041,"ELEMENT_SET_NO":999,"REV_AT_EPOCH":66240,"BSTAR":5.5495283e-5,"MEAN_MOTION_DOT":-9.4e-7,"MEAN_MOTION_DDOT":0},{"OBJECT_NAME":"GLOBALSTAR M082","OBJECT_ID":"2011-080C","EPOCH":"2026-04-26T22:28:06.197376","MEAN_MOTION":12.62269367,"ECCENTRICITY":3.653e-5,"INCLINATION":52.005,"RA_OF_ASC_NODE":130.5039,"ARG_OF_PERICENTER":144.2797,"MEAN_ANOMALY":242.2391,"EPHEMERIS_TYPE":0,"CLASSIFICATION_TYPE":"U","NORAD_CAT_ID":38042,"ELEMENT_SET_NO":999,"REV_AT_EPOCH":66312,"BSTAR":0.00012897908,"MEAN_MOTION_DOT":-8.1e-7,"MEAN_MOTION_DDOT":0},{"OBJECT_NAME":"GLOBALSTAR M092","OBJECT_ID":"2011-080D","EPOCH":"2026-04-26T16:52:24.086784","MEAN_MOTION":12.6226671,"ECCENTRICITY":5.146e-5,"INCLINATION":52.0084,"RA_OF_ASC_NODE":221.6086,"ARG_OF_PERICENTER":121.2924,"MEAN_ANOMALY":44.7277,"EPHEMERIS_TYPE":0,"CLASSIFICATION_TYPE":"U","NORAD_CAT_ID":38043,"ELEMENT_SET_NO":999,"REV_AT_EPOCH":66154,"BSTAR":5.923827e-6,"MEAN_MOTION_DOT":-1.03e-6,"MEAN_MOTION_DDOT":0},{"OBJECT_NAME":"GLOBALSTAR M090","OBJECT_ID":"2011-080E","EPOCH":"2026-04-26T07:50:29.389920","MEAN_MOTION":12.62268299,"ECCENTRICITY":8.06e-6,"INCLINATION":52.01,"RA_OF_ASC_NODE":126.2978,"ARG_OF_PERICENTER":111.1702,"MEAN_ANOMALY":263.6694,"EPHEMERIS_TYPE":0,"CLASSIFICATION_TYPE":"U","NORAD_CAT_ID":38044,"ELEMENT_SET_NO":999,"REV_AT_EPOCH":66316,"BSTAR":8.9293384e-5,"MEAN_MOTION_DOT":-8.8e-7,"MEAN_MOTION_DDOT":0},{"OBJECT_NAME":"GLOBALSTAR M086","OBJECT_ID":"2011-080F","EPOCH":"2026-04-26T18:42:54.637056","MEAN_MOTION":12.62285511,"ECCENTRICITY":8.67e-5,"INCLINATION":51.9872,"RA_OF_ASC_NODE":124.9328,"ARG_OF_PERICENTER":305.0853,"MEAN_ANOMALY":227.0783,"EPHEMERIS_TYPE":0,"CLASSIFICATION_TYPE":"U","NORAD_CAT_ID":38045,"ELEMENT_SET_NO":999,"REV_AT_EPOCH":66316,"BSTAR":0.00013932834,"MEAN_MOTION_DOT":-7.9e-7,"MEAN_MOTION_DDOT":0},{"OBJECT_NAME":"GLOBALSTAR M097","OBJECT_ID":"2013-005A","EPOCH":"2026-04-26T22:19:27.434496","MEAN_MOTION":12.62260087,"ECCENTRICITY":4.318e-5,"INCLINATION":52.0065,"RA_OF_ASC_NODE":39.3609,"ARG_OF_PERICENTER":76.9512,"MEAN_ANOMALY":283.1403,"EPHEMERIS_TYPE":0,"CLASSIFICATION_TYPE":"U","NORAD_CAT_ID":39072,"ELEMENT_SET_NO":999,"REV_AT_EPOCH":61043,"BSTAR":2.841412e-6,"MEAN_MOTION_DOT":-1.03e-6,"MEAN_MOTION_DDOT":0},{"OBJECT_NAME":"GLOBALSTAR M093","OBJECT_ID":"2013-005B","EPOCH":"2026-04-26T17:53:36.136896","MEAN_MOTION":12.6226461,"ECCENTRICITY":3.189e-5,"INCLINATION":52.0127,"RA_OF_ASC_NODE":33.2528,"ARG_OF_PERICENTER":84.4466,"MEAN_ANOMALY":275.6437,"EPHEMERIS_TYPE":0,"CLASSIFICATION_TYPE":"U","NORAD_CAT_ID":39073,"ELEMENT_SET_NO":999,"REV_AT_EPOCH":61036,"BSTAR":3.6744206e-5,"MEAN_MOTION_DOT":-9.7e-7,"MEAN_MOTION_DDOT":0},{"OBJECT_NAME":"GLOBALSTAR M094","OBJECT_ID":"2013-005C","EPOCH":"2026-04-26T21:41:44.186496","MEAN_MOTION":12.62267888,"ECCENTRICITY":6.521e-5,"INCLINATION":51.9962,"RA_OF_ASC_NODE":306.9425,"ARG_OF_PERICENTER":113.9715,"MEAN_ANOMALY":246.122,"EPHEMERIS_TYPE":0,"CLASSIFICATION_TYPE":"U","NORAD_CAT_ID":39074,"ELEMENT_SET_NO":999,"REV_AT_EPOCH":61199,"BSTAR":0.00015308247,"MEAN_MOTION_DOT":-7.6e-7,"MEAN_MOTION_DDOT":0},{"OBJECT_NAME":"GLOBALSTAR M096","OBJECT_ID":"2013-005D","EPOCH":"2026-04-26T20:06:53.131680","MEAN_MOTION":12.6226436,"ECCENTRICITY":6.501e-5,"INCLINATION":52.0099,"RA_OF_ASC_NODE":355.9026,"ARG_OF_PERICENTER":95.0362,"MEAN_ANOMALY":265.0579,"EPHEMERIS_TYPE":0,"CLASSIFICATION_TYPE":"U","NORAD_CAT_ID":39075,"ELEMENT_SET_NO":999,"REV_AT_EPOCH":61090,"BSTAR":9.4694268e-5,"MEAN_MOTION_DOT":-8.7e-7,"MEAN_MOTION_DDOT":0},{"OBJECT_NAME":"GLOBALSTAR M078","OBJECT_ID":"2013-005E","EPOCH":"2026-04-26T13:45:48.240000","MEAN_MOTION":12.62266026,"ECCENTRICITY":0.000104,"INCLINATION":51.9869,"RA_OF_ASC_NODE":80.7834,"ARG_OF_PERICENTER":128.5315,"MEAN_ANOMALY":231.5645,"EPHEMERIS_TYPE":0,"CLASSIFICATION_TYPE":"U","NORAD_CAT_ID":39076,"ELEMENT_SET_NO":999,"REV_AT_EPOCH":60949,"BSTAR":-7.8601e-6,"MEAN_MOTION_DOT":-1.05e-6,"MEAN_MOTION_DDOT":0},{"OBJECT_NAME":"GLOBALSTAR M095","OBJECT_ID":"2013-005F","EPOCH":"2026-04-26T14:24:25.065504","MEAN_MOTION":12.62267338,"ECCENTRICITY":3.671e-5,"INCLINATION":52.0075,"RA_OF_ASC_NODE":78.2339,"ARG_OF_PERICENTER":129.7809,"MEAN_ANOMALY":230.309,"EPHEMERIS_TYPE":0,"CLASSIFICATION_TYPE":"U","NORAD_CAT_ID":39077,"ELEMENT_SET_NO":999,"REV_AT_EPOCH":60935,"BSTAR":-1.95951e-6,"MEAN_MOTION_DOT":-1.04e-6,"MEAN_MOTION_DDOT":0},{"OBJECT_NAME":"GLOBALSTAR M087","OBJECT_ID":"2022-064A","EPOCH":"2026-04-26T12:49:45.963264","MEAN_MOTION":12.62268388,"ECCENTRICITY":5.968e-5,"INCLINATION":51.9994,"RA_OF_ASC_NODE":219.7073,"ARG_OF_PERICENTER":153.4691,"MEAN_ANOMALY":206.6206,"EPHEMERIS_TYPE":0,"CLASSIFICATION_TYPE":"U","NORAD_CAT_ID":52888,"ELEMENT_SET_NO":999,"REV_AT_EPOCH":18461,"BSTAR":3.1301119e-5,"MEAN_MOTION_DOT":-9.8e-7,"MEAN_MOTION_DDOT":0}]
