GLOBALSTAR M080         
1 38041U 11080B   26116.87408899 -.00000094  00000+0  55495-4 0  9990
2 38041  52.0042 175.1992 0000732 142.8037  31.3257 12.62268533662409
GLOBALSTAR M082         
1 38042U 11080C   26116.93618284 -.00000081  00000+0  12898-3 0  9994
2 38042  52.0050 130.5039 0000365 144.2797 242.2391 12.62269367663125
GLOBALSTAR M092         
1 38043U 11080D   26116.70305656 -.00000103  00000+0  59238-5 0  9992
2 38043  52.0084 221.6086 0000514 121.2924  44.7277 12.62266710661541
GLOBALSTAR M090         
1 38044U 11080E   26116.32672905 -.00000088  00000+0  89293-4 0  9990
2 38044  52.0100 126.2978 0000080 111.1702 263.6694 12.62268299663160
GLOBALSTAR M086         
1 38045U 11080F   26116.77979904 -.00000079  00000+0  13933-3 0  9996
2 38045  51.9872 124.9328 0000867 305.0853 227.0783 12.62285511663162
GLOBALSTAR M097         
1 39072U 13005A   26116.93017864 -.00000103  00000+0  28414-5 0  9992
2 39072  52.0065  39.3609 0000431  76.9512 283.1403 12.62260087610438
GLOBALSTAR M093         
1 39073U 13005B   26116.74555714 -.00000097  00000+0  36744-4 0  9999
2 39073  52.0127  33.2528 0000318  84.4466 275.6437 12.62264610610368
GLOBALSTAR M094         
1 39074U 13005C   26116.90398364 -.00000076  00000+0  15308-3 0  9993
2 39074  51.9962 306.9425 0000652 113.9715 246.1220 12.62267888611999
GLOBALSTAR M096         
1 39075U 13005D   26116.83811495 -.00000087  00000+0  94694-4 0  9999
2 39075  52.0099 355.9026 0000650  95.0362 265.0579 12.62264360610909
GLOBALSTAR M078         
1 39076U 13005E   26116.57347500 -.00000105  00000+0 -78601-5 0  9995
2 39076  51.9869  80.7834 0001040 128.5315 231.5645 12.62266026609492
GLOBALSTAR M095         
1 39077U 13005F   26116.60029011 -.00000104  00000+0 -19595-5 0  9990
2 39077  52.0075  78.2339 0000367 129.7809 230.3090 12.62267338609351
GLOBALSTAR M087         
1 52888U 22064A   26116.53455976 -.00000098  00000+0  31301-4 0  9994
2 52888  51.9994 219.7073 0000596 153.4691 206.6206 12.62268388184616
